{
    "links": {
        "self": "http://www.neowsapp.com/rest/v1/neo/3837882?api_key=iIulBulltgU6a56xZRHN4H3l9WmuAYTsLGpBGhQ2"
    },
    "id": "3837882",
    "neo_reference_id": "3837882",
    "name": "(2019 AN12)",
    "designation": "2019 AN12",
    "nasa_jpl_url": "http://ssd.jpl.nasa.gov/sbdb.cgi?sstr=3837882",
    "absolute_magnitude_h": 25.4,
    "estimated_diameter": {
        "kilometers": {
            "estimated_diameter_min": 0.022108281,
            "estimated_diameter_max": 0.0494356193
        },
        "meters": {
            "estimated_diameter_min": 22.1082810359,
            "estimated_diameter_max": 49.435619262
        },
        "miles": {
            "estimated_diameter_min": 0.0137374447,
            "estimated_diameter_max": 0.0307178602
        },
        "feet": {
            "estimated_diameter_min": 72.5337327539,
            "estimated_diameter_max": 162.1903570994
        }
    },
    "is_potentially_hazardous_asteroid": false,
    "close_approach_data": [
        {
            "close_approach_date": "2019-01-25",
            "close_approach_date_full": "2019-Jan-25 02:30",
            "epoch_date_close_approach": 1548383400000,
            "relative_velocity": {
                "kilometers_per_second": "20.2606182904",
                "kilometers_per_hour": "72938.2258454515",
                "miles_per_hour": "45320.9770538029"
            },
            "miss_distance": {
                "astronomical": "0.0234826479",
                "lunar": "9.1347500331",
                "kilometers": "3512954.107799973",
                "miles": "2182848.4625587074"
            },
            "orbiting_body": "Earth"
        },
        {
            "close_approach_date": "2069-06-25",
            "close_approach_date_full": "2069-Jun-25 23:26",
            "epoch_date_close_approach": 3139428360000,
            "relative_velocity": {
                "kilometers_per_second": "15.8421198688",
                "kilometers_per_hour": "57031.6315275637",
                "miles_per_hour": "35437.2379344465"
            },
            "miss_distance": {
                "astronomical": "0.1164768461",
                "lunar": "45.3094931329",
                "kilometers": "17424688.080877807",
                "miles": "10827199.1095634566"
            },
            "orbiting_body": "Earth"
        }
    ],
    "orbital_data": {
        "orbit_id": "1",
        "orbit_determination_date": "2019-01-16 07:44:35",
        "first_observation_date": "2019-01-09",
        "last_observation_date": "2019-01-15",
        "data_arc_in_days": 6,
        "observations_used": 10,
        "orbit_uncertainty": "9",
        "minimum_orbit_intersection": ".00309585",
        "jupiter_tisserand_invariant": "3.260",
        "epoch_osculation": "2458495.5",
        "eccentricity": ".7030874047704193",
        "semi_major_axis": "2.235130527536167",
        "inclination": ".2747062663420036",
        "ascending_node_longitude": "244.7785437275811",
        "orbital_period": "1220.542094698346",
        "perihelion_distance": ".663638405607625",
        "perihelion_argument": "319.1331852445119",
        "aphelion_distance": "3.806622649464709",
        "perihelion_time": "2458552.411001642047",
        "mean_anomaly": "343.2140483477545",
        "mean_motion": ".2949509087508965",
        "equinox": "J2000",
        "orbit_class": {
            "orbit_class_type": "APO",
            "orbit_class_description": "Near-Earth asteroid orbits which cross the Earth’s orbit similar to that of 1862 Apollo",
            "orbit_class_range": "a (semi-major axis) > 1.0 AU; q (perihelion) < 1.017 AU"
        }
    },
    "is_sentry_object": false
}